{
  "type": "FeatureCollection",
  "features": [
    {
      "type": "Feature",
      "properties": {
        "norad_id": 54259,
        "name": "EUTELSAT 10B",
        "group": "eutelsat",
        "lat": -0.02244826514019318,
        "lon": -86.77282840798202,
        "alt_km": 35788.89969735622,
        "timestamp": "2025-12-21T11:31:42.514085+00:00",
        "meta_object_name": "EUTELSAT 10B",
        "meta_object_id": "2022-157A",
        "meta_epoch": "2025-12-21T03:24:38.628000",
        "meta_mean_motion": 1.00272805,
        "meta_eccentricity": 7.49e-05,
        "meta_inclination": 0.0623,
        "meta_ra_of_asc_node": 96.4166,
        "meta_arg_of_pericenter": 6.6781,
        "meta_mean_anomaly": 48.0384,
        "meta_ephemeris_type": 0,
        "meta_classification_type": "U",
        "meta_norad_cat_id": 54259,
        "meta_element_set_no": 999,
        "meta_rev_at_epoch": 1124,
        "meta_bstar": 0,
        "meta_mean_motion_dot": 9.2e-07,
        "meta_mean_motion_ddot": 0,
        "tle_line1": "1 54259U 22157A   25355.14211375  .00000092  00000+0  00000+0 0  9995",
        "tle_line2": "2 54259   0.0623  96.4166 0000749   6.6781  48.0384  1.00272805 11248"
      },
      "geometry": {
        "type": "Point",
        "coordinates": [
          -86.77282840798202,
          -0.02244826514019318
        ]
      }
    },
    {
      "type": "Feature",
      "properties": {
        "norad_id": 59346,
        "name": "EUTELSAT 36D",
        "group": "eutelsat",
        "lat": -0.048650681764081466,
        "lon": -60.93482815698229,
        "alt_km": 35784.807497743735,
        "timestamp": "2025-12-21T11:31:42.514097+00:00",
        "meta_object_name": "EUTELSAT 36D",
        "meta_object_id": "2024-059A",
        "meta_epoch": "2025-12-21T03:05:44.704896",
        "meta_mean_motion": 1.00273114,
        "meta_eccentricity": 4.4e-05,
        "meta_inclination": 0.0249,
        "meta_ra_of_asc_node": 26.7512,
        "meta_arg_of_pericenter": 334.3962,
        "meta_mean_anomaly": 171.0916,
        "meta_ephemeris_type": 0,
        "meta_classification_type": "U",
        "meta_norad_cat_id": 59346,
        "meta_element_set_no": 999,
        "meta_rev_at_epoch": 636,
        "meta_bstar": 0,
        "meta_mean_motion_dot": 0,
        "meta_mean_motion_ddot": 0,
        "tle_line1": "1 59346U 24059A   25355.12898964  .00000000  00000+0  00000+0 0  9992",
        "tle_line2": "2 59346   0.0249  26.7512 0000440 334.3962 171.0916  1.00273114  6364"
      },
      "geometry": {
        "type": "Point",
        "coordinates": [
          -60.93482815698229,
          -0.048650681764081466
        ]
      }
    }
  ]
}